TIANMU-1 20             
1 58661U 23208B   26192.80313948  .00004979  00000+0  15803-3 0  9995
2 58661  97.4461 309.8979 0006035 225.6651 134.4097 15.33131369141194
TIANMU-1 21             
1 58662U 23208C   26192.75390520  .00005926  00000+0  17403-3 0  9992
2 58662  97.4521 312.6367 0006354 217.3276 142.7526 15.35511357141336
TIANMU-1 22             
1 58663U 23208D   26192.77473480  .00004470  00000+0  15004-3 0  9990
2 58663  97.4516 309.1231 0002486 235.1822 124.9185 15.31396459141095
TIANMU-1 15             
1 58700U 24004A   26192.73947946  .00003344  00000+0  12942-3 0  9993
2 58700  97.4668  18.9303 0005838 243.3800 116.6841 15.26891763139525
TIANMU-1 16             
1 58701U 24004B   26192.79470969  .00003209  00000+0  12392-3 0  9995
2 58701  97.4616  18.2039 0004338 261.9045  98.1702 15.26994806139532
TIANMU-1 17             
1 58702U 24004C   26192.78018744  .00003408  00000+0  13147-3 0  9994
2 58702  97.4642  18.6834 0003837 269.1372  90.9427 15.26992813139524
TIANMU-1 18             
1 58703U 24004D   26192.75608568  .00003290  00000+0  12734-3 0  9991
2 58703  97.4660  18.9216 0003535 241.0904 118.9980 15.26908649139526
INSAT-3DS               
1 58990U 24033A   26192.70488309 -.00000151  00000+0  00000+0 0  9998
2 58990   0.1012 265.4602 0001049 224.9868 134.9920  1.00271316 47319
METEOR-M2 4             
1 59051U 24039A   26192.80312047 -.00000010  00000+0  15084-4 0  9996
2 59051  98.7023 151.7935 0008235  97.2220 262.9895 14.22431981122766
GOES 19                 
1 60133U 24119A   26192.76376948 -.00000244  00000+0  00000+0 0  9999
2 60133   0.0116 272.1222 0000580 293.8903 283.4083  1.00269907  7210
MTG-S1                  
1 64723U 25143A   26192.56479294 -.00000002  00000+0  00000+0 0  9994
2 64723   0.5866 344.1792 0003486 262.0964 246.0912  1.00272815  3664
METOP-SGA1              
1 65159U 25172A   26192.73416615 -.00000002  00000+0  19437-4 0  9996
2 65159  98.6632 251.9428 0007242 342.5939  17.4988 14.19818800 47270
FENGYUN 3H              
1 65815U 25219A   26192.77466353 -.00000004  00000+0  18591-4 0  9997
2 65815  98.6772 133.0663 0001214  62.4858 297.6441 14.19924461 40872
