OBJECT_NAME,OBJECT_ID,EPOCH,MEAN_MOTION,ECCENTRICITY,INCLINATION,RA_OF_ASC_NODE,ARG_OF_PERICENTER,MEAN_ANOMALY,EPHEMERIS_TYPE,CLASSIFICATION_TYPE,NORAD_CAT_ID,ELEMENT_SET_NO,REV_AT_EPOCH,BSTAR,MEAN_MOTION_DOT,MEAN_MOTION_DDOT
TIANMU-1 20,2023-208B,2026-07-11T19:16:31.251072,15.33131369,.00060356,97.4461,309.8979,225.6651,134.4097,0,U,58661,999,14119,.15802954E-3,.4979E-4,0
TIANMU-1 21,2023-208C,2026-07-11T18:05:37.409280,15.35511357,.00063542,97.4521,312.6367,217.3276,142.7526,0,U,58662,999,14133,.17403364E-3,.5926E-4,0
TIANMU-1 22,2023-208D,2026-07-11T18:35:37.086720,15.31396459,.0002486,97.4516,309.1231,235.1822,124.9185,0,U,58663,999,14109,.15003914E-3,.447E-4,0
TIANMU-1 15,2024-004A,2026-07-11T17:44:51.025344,15.26891763,.00058389,97.4668,18.9303,243.3800,116.6841,0,U,58700,999,13952,.12942491E-3,.3344E-4,0
TIANMU-1 16,2024-004B,2026-07-11T19:04:22.917216,15.26994806,.00043383,97.4616,18.2039,261.9045,98.1702,0,U,58701,999,13953,.12392179E-3,.3209E-4,0
TIANMU-1 17,2024-004C,2026-07-11T18:43:28.194816,15.26992813,.00038371,97.4642,18.6834,269.1372,90.9427,0,U,58702,999,13952,.13147474E-3,.3408E-4,0
TIANMU-1 18,2024-004D,2026-07-11T18:08:45.802752,15.26908649,.00035353,97.4660,18.9216,241.0904,118.9980,0,U,58703,999,13952,.1273373E-3,.329E-4,0
INSAT-3DS,2024-033A,2026-07-11T16:55:01.898976,1.00271316,.00010491,0.1012,265.4602,224.9868,134.9920,0,U,58990,999,4731,0,-.151E-5,0
METEOR-M2 4,2024-039A,2026-07-11T19:16:29.608608,14.22431981,.00082359,98.7023,151.7935,97.2220,262.9895,0,U,59051,999,12276,.15083756E-4,-.1E-6,0
GOES 19,2024-119A,2026-07-11T18:19:49.683072,1.00269907,.00005801,0.0116,272.1222,293.8903,283.4083,0,U,60133,999,721,0,-.244E-5,0
MTG-S1,2025-143A,2026-07-11T13:33:18.110016,1.00272815,.00034865,0.5866,344.1792,262.0964,246.0912,0,U,64723,999,366,0,-.2E-7,0
METOP-SGA1,2025-172A,2026-07-11T17:37:11.955360,14.19818800,.0007242,98.6632,251.9428,342.5939,17.4988,0,U,65159,999,4727,.19437014E-4,-.2E-7,0
FENGYUN 3H,2025-219A,2026-07-11T18:35:30.928992,14.19924461,.00012142,98.6772,133.0663,62.4858,297.6441,0,U,65815,999,4087,.18591477E-4,-.4E-7,0
